QZS-1R                  
1 49336U 21096A   23360.67399824 -.00000304  00000+0  00000+0 0  9991
2 49336  35.5897  93.1823 0755699 271.3561 106.2301  1.00253735  7945
